[{"OBJECT_NAME":"OTTER PUP","OBJECT_ID":"2023-084B","EPOCH":"2026-04-26T10:07:14.726208","MEAN_MOTION":16.1576444,"ECCENTRICITY":0.00062107,"INCLINATION":97.5628,"RA_OF_ASC_NODE":278.16,"ARG_OF_PERICENTER":270.6211,"MEAN_ANOMALY":89.4364,"EPHEMERIS_TYPE":0,"CLASSIFICATION_TYPE":"U","NORAD_CAT_ID":56933,"ELEMENT_SET_NO":999,"REV_AT_EPOCH":16110,"BSTAR":0.00093907417,"MEAN_MOTION_DOT":0.01263999,"MEAN_MOTION_DDOT":0.0011907139},{"OBJECT_NAME":"GEISAT PRECURSOR","OBJECT_ID":"2023-084C","EPOCH":"2026-04-26T21:23:34.202976","MEAN_MOTION":15.33891632,"ECCENTRICITY":0.00068056,"INCLINATION":97.6141,"RA_OF_ASC_NODE":256.2088,"ARG_OF_PERICENTER":155.5364,"MEAN_ANOMALY":204.6203,"EPHEMERIS_TYPE":0,"CLASSIFICATION_TYPE":"U","NORAD_CAT_ID":56934,"ELEMENT_SET_NO":999,"REV_AT_EPOCH":15966,"BSTAR":0.00028744499,"MEAN_MOTION_DOT":9.348e-5,"MEAN_MOTION_DDOT":0},{"OBJECT_NAME":"BLACKJACK ACES-3","OBJECT_ID":"2023-084U","EPOCH":"2026-04-26T21:33:32.721696","MEAN_MOTION":15.18330036,"ECCENTRICITY":0.00037221,"INCLINATION":97.6127,"RA_OF_ASC_NODE":251.7313,"ARG_OF_PERICENTER":152.7873,"MEAN_ANOMALY":207.3556,"EPHEMERIS_TYPE":0,"CLASSIFICATION_TYPE":"U","NORAD_CAT_ID":56950,"ELEMENT_SET_NO":999,"REV_AT_EPOCH":15938,"BSTAR":0.00030917963,"MEAN_MOTION_DOT":6.278e-5,"MEAN_MOTION_DDOT":0},{"OBJECT_NAME":"BLACKJACK ACES-2","OBJECT_ID":"2023-084Z","EPOCH":"2026-04-26T18:31:36.912000","MEAN_MOTION":15.18204286,"ECCENTRICITY":0.00028015,"INCLINATION":97.6124,"RA_OF_ASC_NODE":251.6926,"ARG_OF_PERICENTER":124.2956,"MEAN_ANOMALY":235.8543,"EPHEMERIS_TYPE":0,"CLASSIFICATION_TYPE":"U","NORAD_CAT_ID":56955,"ELEMENT_SET_NO":999,"REV_AT_EPOCH":15937,"BSTAR":0.00045440134,"MEAN_MOTION_DOT":9.229e-5,"MEAN_MOTION_DDOT":0},{"OBJECT_NAME":"BLACKJACK ACES-1","OBJECT_ID":"2023-084AA","EPOCH":"2026-04-26T21:24:40.081248","MEAN_MOTION":15.1842424,"ECCENTRICITY":0.00028307,"INCLINATION":97.6113,"RA_OF_ASC_NODE":251.5926,"ARG_OF_PERICENTER":107.6885,"MEAN_ANOMALY":252.4658,"EPHEMERIS_TYPE":0,"CLASSIFICATION_TYPE":"U","NORAD_CAT_ID":56956,"ELEMENT_SET_NO":999,"REV_AT_EPOCH":10911,"BSTAR":0.00038537213,"MEAN_MOTION_DOT":7.865e-5,"MEAN_MOTION_DDOT":0},{"OBJECT_NAME":"ION SCV-011","OBJECT_ID":"2023-084AB","EPOCH":"2026-04-26T17:51:57.624480","MEAN_MOTION":15.28319163,"ECCENTRICITY":0.00066801,"INCLINATION":98.1384,"RA_OF_ASC_NODE":299.2786,"ARG_OF_PERICENTER":207.208,"MEAN_ANOMALY":152.8808,"EPHEMERIS_TYPE":0,"CLASSIFICATION_TYPE":"U","NORAD_CAT_ID":56957,"ELEMENT_SET_NO":999,"REV_AT_EPOCH":15795,"BSTAR":0.0002388968,"MEAN_MOTION_DOT":6.506e-5,"MEAN_MOTION_DDOT":0},{"OBJECT_NAME":"GHOST-3","OBJECT_ID":"2023-084AC","EPOCH":"2026-04-26T22:26:00.798144","MEAN_MOTION":15.46148355,"ECCENTRICITY":0.00075525,"INCLINATION":97.6143,"RA_OF_ASC_NODE":262.8481,"ARG_OF_PERICENTER":120.9267,"MEAN_ANOMALY":239.2725,"EPHEMERIS_TYPE":0,"CLASSIFICATION_TYPE":"U","NORAD_CAT_ID":56958,"ELEMENT_SET_NO":999,"REV_AT_EPOCH":16009,"BSTAR":0.00042687448,"MEAN_MOTION_DOT":0.00020883,"MEAN_MOTION_DDOT":0},{"OBJECT_NAME":"TOMORROW-R2","OBJECT_ID":"2023-084AG","EPOCH":"2026-04-26T09:40:51.700224","MEAN_MOTION":15.83247824,"ECCENTRICITY":0.00020181,"INCLINATION":97.5922,"RA_OF_ASC_NODE":274.2939,"ARG_OF_PERICENTER":113.7708,"MEAN_ANOMALY":246.3773,"EPHEMERIS_TYPE":0,"CLASSIFICATION_TYPE":"U","NORAD_CAT_ID":56962,"ELEMENT_SET_NO":999,"REV_AT_EPOCH":16081,"BSTAR":0.00077543657,"MEAN_MOTION_DOT":0.00169322,"MEAN_MOTION_DDOT":0},{"OBJECT_NAME":"AFR-1","OBJECT_ID":"2023-084AJ","EPOCH":"2026-04-26T23:12:20.574720","MEAN_MOTION":15.28087679,"ECCENTRICITY":0.00113377,"INCLINATION":97.6189,"RA_OF_ASC_NODE":252.4674,"ARG_OF_PERICENTER":152.9829,"MEAN_ANOMALY":207.2002,"EPHEMERIS_TYPE":0,"CLASSIFICATION_TYPE":"U","NORAD_CAT_ID":56964,"ELEMENT_SET_NO":999,"REV_AT_EPOCH":15940,"BSTAR":0.00021271762,"MEAN_MOTION_DOT":5.757e-5,"MEAN_MOTION_DDOT":0},{"OBJECT_NAME":"METEOR-M2 3","OBJECT_ID":"2023-091A","EPOCH":"2026-04-26T21:03:09.078624","MEAN_MOTION":14.24042263,"ECCENTRICITY":0.00032439,"INCLINATION":98.6123,"RA_OF_ASC_NODE":172.8946,"ARG_OF_PERICENTER":335.5965,"MEAN_ANOMALY":24.506,"EPHEMERIS_TYPE":0,"CLASSIFICATION_TYPE":"U","NORAD_CAT_ID":57166,"ELEMENT_SET_NO":999,"REV_AT_EPOCH":14721,"BSTAR":2.16564e-5,"MEAN_MOTION_DOT":6.0e-8,"MEAN_MOTION_DDOT":0},{"OBJECT_NAME":"UMKA 1 (RS40S)","OBJECT_ID":"2023-091G","EPOCH":"2026-04-26T21:27:40.654656","MEAN_MOTION":15.20229531,"ECCENTRICITY":0.00112914,"INCLINATION":97.5094,"RA_OF_ASC_NODE":175.8012,"ARG_OF_PERICENTER":301.7663,"MEAN_ANOMALY":58.2471,"EPHEMERIS_TYPE":0,"CLASSIFICATION_TYPE":"U","NORAD_CAT_ID":57172,"ELEMENT_SET_NO":999,"REV_AT_EPOCH":15621,"BSTAR":0.00030830416,"MEAN_MOTION_DOT":6.626e-5,"MEAN_MOTION_DDOT":0},{"OBJECT_NAME":"2023-091H","OBJECT_ID":"2023-091H","EPOCH":"2026-04-26T21:48:23.149728","MEAN_MOTION":15.27526411,"ECCENTRICITY":0.0008363,"INCLINATION":97.5089,"RA_OF_ASC_NODE":179.7205,"ARG_OF_PERICENTER":296.9235,"MEAN_ANOMALY":63.1149,"EPHEMERIS_TYPE":0,"CLASSIFICATION_TYPE":"U","NORAD_CAT_ID":57173,"ELEMENT_SET_NO":999,"REV_AT_EPOCH":15647,"BSTAR":0.00044254382,"MEAN_MOTION_DOT":0.00011859,"MEAN_MOTION_DDOT":0},{"OBJECT_NAME":"2023-091J","OBJECT_ID":"2023-091J","EPOCH":"2026-04-26T21:24:55.043136","MEAN_MOTION":15.1357711,"ECCENTRICITY":0.00123123,"INCLINATION":97.5103,"RA_OF_ASC_NODE":170.7214,"ARG_OF_PERICENTER":331.1786,"MEAN_ANOMALY":28.8764,"EPHEMERIS_TYPE":0,"CLASSIFICATION_TYPE":"U","NORAD_CAT_ID":57174,"ELEMENT_SET_NO":999,"REV_AT_EPOCH":15587,"BSTAR":0.00023868552,"MEAN_MOTION_DOT":4.223e-5,"MEAN_MOTION_DDOT":0},{"OBJECT_NAME":"CUBEBEL 2 (EU11S)","OBJECT_ID":"2023-091K","EPOCH":"2026-04-26T22:12:10.766304","MEAN_MOTION":15.27947644,"ECCENTRICITY":0.00084512,"INCLINATION":97.5091,"RA_OF_ASC_NODE":179.7238,"ARG_OF_PERICENTER":298.7084,"MEAN_ANOMALY":61.3306,"EPHEMERIS_TYPE":0,"CLASSIFICATION_TYPE":"U","NORAD_CAT_ID":57175,"ELEMENT_SET_NO":999,"REV_AT_EPOCH":15647,"BSTAR":0.00051751502,"MEAN_MOTION_DOT":0.00014064,"MEAN_MOTION_DDOT":0},{"OBJECT_NAME":"SITRO-AIS 5 (KATYS)","OBJECT_ID":"2023-091L","EPOCH":"2026-04-26T21:17:38.149440","MEAN_MOTION":15.28276049,"ECCENTRICITY":0.00098877,"INCLINATION":97.51,"RA_OF_ASC_NODE":180.3371,"ARG_OF_PERICENTER":283.7059,"MEAN_ANOMALY":76.308,"EPHEMERIS_TYPE":0,"CLASSIFICATION_TYPE":"U","NORAD_CAT_ID":57176,"ELEMENT_SET_NO":999,"REV_AT_EPOCH":15650,"BSTAR":0.00043695408,"MEAN_MOTION_DOT":0.00011983,"MEAN_MOTION_DDOT":0},{"OBJECT_NAME":"ZORKIY-2M 1","OBJECT_ID":"2023-091M","EPOCH":"2026-04-26T22:44:58.860672","MEAN_MOTION":15.20234326,"ECCENTRICITY":0.00118374,"INCLINATION":97.5134,"RA_OF_ASC_NODE":176.0917,"ARG_OF_PERICENTER":297.8367,"MEAN_ANOMALY":62.1668,"EPHEMERIS_TYPE":0,"CLASSIFICATION_TYPE":"U","NORAD_CAT_ID":57177,"ELEMENT_SET_NO":999,"REV_AT_EPOCH":15621,"BSTAR":0.000327045,"MEAN_MOTION_DOT":7.036e-5,"MEAN_MOTION_DDOT":0}]
