OTTER PUP               
1 56933U 23084B   26116.42169822  .01263999  11907-2  93907-3 0  9993
2 56933  97.5628 278.1600 0006210 270.6211  89.4364 16.15764440161108
GEISAT PRECURSOR        
1 56934U 23084C   26116.89136809  .00009348  00000+0  28744-3 0  9995
2 56934  97.6141 256.2088 0006805 155.5364 204.6203 15.33891632159661
BLACKJACK ACES-3        
1 56950U 23084U   26116.89829539  .00006278  00000+0  30918-3 0  9997
2 56950  97.6127 251.7313 0003722 152.7873 207.3556 15.18330036159382
BLACKJACK ACES-2        
1 56955U 23084Z   26116.77195500  .00009229  00000+0  45440-3 0  9998
2 56955  97.6124 251.6926 0002801 124.2956 235.8543 15.18204286159374
BLACKJACK ACES-1        
1 56956U 23084AA  26116.89213057  .00007865  00000+0  38537-3 0  9993
2 56956  97.6113 251.5926 0002830 107.6885 252.4658 15.18424240109113
ION SCV-011             
1 56957U 23084AB  26116.74441695  .00006506  00000+0  23890-3 0  9996
2 56957  98.1384 299.2786 0006680 207.2080 152.8808 15.28319163157957
GHOST-3                 
1 56958U 23084AC  26116.93473146  .00020883  00000+0  42687-3 0  9993
2 56958  97.6143 262.8481 0007552 120.9267 239.2725 15.46148355160090
TOMORROW-R2             
1 56962U 23084AG  26116.40337616  .00169322  00000+0  77544-3 0  9993
2 56962  97.5922 274.2939 0002018 113.7708 246.3773 15.83247824160810
AFR-1                   
1 56964U 23084AJ  26116.96690480  .00005757  00000+0  21272-3 0  9995
2 56964  97.6189 252.4674 0011337 152.9829 207.2002 15.28087679159408
METEOR-M2 3             
1 57166U 23091A   26116.87718841  .00000006  00000+0  21656-4 0  9999
2 57166  98.6123 172.8946 0003243 335.5965  24.5060 14.24042263147211
UMKA 1 (RS40S)          
1 57172U 23091G   26116.89422054  .00006626  00000+0  30830-3 0  9993
2 57172  97.5094 175.8012 0011291 301.7663  58.2471 15.20229531156214
2023-091H               
1 57173U 23091H   26116.90860127  .00011859  00000+0  44254-3 0  9992
2 57173  97.5089 179.7205 0008363 296.9235  63.1149 15.27526411156471
2023-091J               
1 57174U 23091J   26116.89230374  .00004223  00000+0  23869-3 0  9992
2 57174  97.5103 170.7214 0012312 331.1786  28.8764 15.13577110155873
CUBEBEL 2 (EU11S)       
1 57175U 23091K   26116.92512461  .00014064  00000+0  51752-3 0  9993
2 57175  97.5091 179.7238 0008451 298.7084  61.3306 15.27947644156472
SITRO-AIS 5 (KATYS)     
1 57176U 23091L   26116.88724710  .00011983  00000+0  43695-3 0  9995
2 57176  97.5100 180.3371 0009887 283.7059  76.3080 15.28276049156504
ZORKIY-2M 1             
1 57177U 23091M   26116.94790348  .00007036  00000+0  32704-3 0  9996
2 57177  97.5134 176.0917 0011837 297.8367  62.1668 15.20234326156213
